{
  "type": "FeatureCollection",
  "features": [
    {
      "type": "Feature",
      "properties": {
        "norad_id": 47059,
        "name": "COSMOS 2251 DEB",
        "group": "cosmos-2251-debris",
        "lat": -2.6386793830643165,
        "lon": -120.50054259864943,
        "alt_km": 526.436409239006,
        "timestamp": "2025-12-10T09:57:45.096516+00:00",
        "meta_object_name": "COSMOS 2251 DEB",
        "meta_object_id": "1993-036BXP",
        "meta_epoch": "2025-12-06T03:03:53.254944",
        "meta_mean_motion": 15.11824975,
        "meta_eccentricity": 0.0012241,
        "meta_inclination": 73.9837,
        "meta_ra_of_asc_node": 249.1614,
        "meta_arg_of_pericenter": 60.0281,
        "meta_mean_anomaly": 7.7142,
        "meta_ephemeris_type": 0,
        "meta_classification_type": "U",
        "meta_norad_cat_id": 47059,
        "meta_element_set_no": 999,
        "meta_rev_at_epoch": 8205,
        "meta_bstar": 0.0045995756,
        "meta_mean_motion_dot": 0.00079589,
        "meta_mean_motion_ddot": 0,
        "tle_line1": "1 47059U 93036BXP 25340.12769971  .00079589  00000+0  45996-2 0  9994",
        "tle_line2": "2 47059  73.9837 249.1614 0012241  60.0281   7.7142 15.11824975 82057"
      },
      "geometry": {
        "type": "Point",
        "coordinates": [
          -120.50054259864943,
          -2.6386793830643165
        ]
      }
    },
    {
      "type": "Feature",
      "properties": {
        "norad_id": 47062,
        "name": "COSMOS 2251 DEB",
        "group": "cosmos-2251-debris",
        "lat": 49.04201275563701,
        "lon": -117.17864370443087,
        "alt_km": 938.9671887402137,
        "timestamp": "2025-12-10T09:57:45.096526+00:00",
        "meta_object_name": "COSMOS 2251 DEB",
        "meta_object_id": "1993-036BXS",
        "meta_epoch": "2025-12-07T13:07:54.059808",
        "meta_mean_motion": 13.71915602,
        "meta_eccentricity": 0.03234523,
        "meta_inclination": 74.0847,
        "meta_ra_of_asc_node": 86.7391,
        "meta_arg_of_pericenter": 213.5714,
        "meta_mean_anomaly": 158.9974,
        "meta_ephemeris_type": 0,
        "meta_classification_type": "U",
        "meta_norad_cat_id": 47062,
        "meta_element_set_no": 999,
        "meta_rev_at_epoch": 55531,
        "meta_bstar": 0.0031720462,
        "meta_mean_motion_dot": 4.156e-05,
        "meta_mean_motion_ddot": 0,
        "tle_line1": "1 47062U 93036BXS 25341.54715347  .00004156  00000+0  31720-2 0  9991",
        "tle_line2": "2 47062  74.0847  86.7391 0323452 213.5714 158.9974 13.71915602555314"
      },
      "geometry": {
        "type": "Point",
        "coordinates": [
          -117.17864370443087,
          49.04201275563701
        ]
      }
    },
    {
      "type": "Feature",
      "properties": {
        "norad_id": 47068,
        "name": "COSMOS 2251 DEB",
        "group": "cosmos-2251-debris",
        "lat": -63.30127525376011,
        "lon": 173.1348803997058,
        "alt_km": 709.2397658464097,
        "timestamp": "2025-12-10T09:57:45.096536+00:00",
        "meta_object_name": "COSMOS 2251 DEB",
        "meta_object_id": "1993-036BXY",
        "meta_epoch": "2025-12-08T08:42:24.014880",
        "meta_mean_motion": 14.53106293,
        "meta_eccentricity": 0.00184249,
        "meta_inclination": 74.0236,
        "meta_ra_of_asc_node": 211.7352,
        "meta_arg_of_pericenter": 298.9395,
        "meta_mean_anomaly": 60.9918,
        "meta_ephemeris_type": 0,
        "meta_classification_type": "U",
        "meta_norad_cat_id": 47068,
        "meta_element_set_no": 999,
        "meta_rev_at_epoch": 61693,
        "meta_bstar": 0.0012733877,
        "meta_mean_motion_dot": 5.254e-05,
        "meta_mean_motion_ddot": 0,
        "tle_line1": "1 47068U 93036BXY 25342.36277795  .00005254  00000+0  12734-2 0  9992",
        "tle_line2": "2 47068  74.0236 211.7352 0018424 298.9395  60.9918 14.53106293616936"
      },
      "geometry": {
        "type": "Point",
        "coordinates": [
          173.1348803997058,
          -63.30127525376011
        ]
      }
    },
    {
      "type": "Feature",
      "properties": {
        "norad_id": 47073,
        "name": "COSMOS 2251 DEB",
        "group": "cosmos-2251-debris",
        "lat": 39.39630760087045,
        "lon": 12.340248204378977,
        "alt_km": 904.780271688097,
        "timestamp": "2025-12-10T09:57:45.096546+00:00",
        "meta_object_name": "COSMOS 2251 DEB",
        "meta_object_id": "1993-036BYD",
        "meta_epoch": "2025-11-28T23:48:38.837952",
        "meta_mean_motion": 14.04684181,
        "meta_eccentricity": 0.01626495,
        "meta_inclination": 74.0833,
        "meta_ra_of_asc_node": 225.7586,
        "meta_arg_of_pericenter": 267.1836,
        "meta_mean_anomaly": 91.0675,
        "meta_ephemeris_type": 0,
        "meta_classification_type": "U",
        "meta_norad_cat_id": 47073,
        "meta_element_set_no": 999,
        "meta_rev_at_epoch": 60168,
        "meta_bstar": 0.0003803633,
        "meta_mean_motion_dot": 6.6e-06,
        "meta_mean_motion_ddot": 0,
        "tle_line1": "1 47073U 93036BYD 25332.99211618  .00000660  00000+0  38036-3 0  9998",
        "tle_line2": "2 47073  74.0833 225.7586 0162649 267.1836  91.0675 14.04684181601680"
      },
      "geometry": {
        "type": "Point",
        "coordinates": [
          12.340248204378977,
          39.39630760087045
        ]
      }
    },
    {
      "type": "Feature",
      "properties": {
        "norad_id": 47074,
        "name": "COSMOS 2251 DEB",
        "group": "cosmos-2251-debris",
        "lat": 34.771652962196754,
        "lon": -35.61440874011946,
        "alt_km": 711.6846625611633,
        "timestamp": "2025-12-10T09:57:45.096556+00:00",
        "meta_object_name": "COSMOS 2251 DEB",
        "meta_object_id": "1993-036BYE",
        "meta_epoch": "2025-12-08T16:49:34.505184",
        "meta_mean_motion": 14.3557053,
        "meta_eccentricity": 0.01448795,
        "meta_inclination": 74.0911,
        "meta_ra_of_asc_node": 316.0985,
        "meta_arg_of_pericenter": 343.8802,
        "meta_mean_anomaly": 196.5757,
        "meta_ephemeris_type": 0,
        "meta_classification_type": "U",
        "meta_norad_cat_id": 47074,
        "meta_element_set_no": 999,
        "meta_rev_at_epoch": 2624,
        "meta_bstar": 0.0031554894,
        "meta_mean_motion_dot": 0.00010228,
        "meta_mean_motion_ddot": 0,
        "tle_line1": "1 47074U 93036BYE 25342.70109381  .00010228  00000+0  31555-2 0  9991",
        "tle_line2": "2 47074  74.0911 316.0985 0144879 343.8802 196.5757 14.35570530 26246"
      },
      "geometry": {
        "type": "Point",
        "coordinates": [
          -35.61440874011946,
          34.771652962196754
        ]
      }
    },
    {
      "type": "Feature",
      "properties": {
        "norad_id": 47116,
        "name": "COSMOS 2251 DEB",
        "group": "cosmos-2251-debris",
        "lat": 68.41836742050658,
        "lon": -68.14740205512776,
        "alt_km": 568.9601944943697,
        "timestamp": "2025-12-10T09:57:45.096567+00:00",
        "meta_object_name": "COSMOS 2251 DEB",
        "meta_object_id": "1993-036BYJ",
        "meta_epoch": "2025-11-28T02:40:22.126944",
        "meta_mean_motion": 14.97052334,
        "meta_eccentricity": 0.00224176,
        "meta_inclination": 74.0247,
        "meta_ra_of_asc_node": 270.3586,
        "meta_arg_of_pericenter": 5.4926,
        "meta_mean_anomaly": 12.2387,
        "meta_ephemeris_type": 0,
        "meta_classification_type": "U",
        "meta_norad_cat_id": 47116,
        "meta_element_set_no": 999,
        "meta_rev_at_epoch": 59292,
        "meta_bstar": 0.0024991708,
        "meta_mean_motion_dot": 0.00029033,
        "meta_mean_motion_ddot": 0,
        "tle_line1": "1 47116U 93036BYJ 25332.11136721  .00029033  00000+0  24992-2 0  9991",
        "tle_line2": "2 47116  74.0247 270.3586 0022417   5.4926  12.2387 14.97052334592926"
      },
      "geometry": {
        "type": "Point",
        "coordinates": [
          -68.14740205512776,
          68.41836742050658
        ]
      }
    },
    {
      "type": "Feature",
      "properties": {
        "norad_id": 53093,
        "name": "COSMOS 2251 DEB",
        "group": "cosmos-2251-debris",
        "lat": 13.72176297216814,
        "lon": -50.22799447977207,
        "alt_km": 739.656571188304,
        "timestamp": "2025-12-10T09:57:45.096577+00:00",
        "meta_object_name": "COSMOS 2251 DEB",
        "meta_object_id": "1993-036BYP",
        "meta_epoch": "2025-12-09T05:35:18.297024",
        "meta_mean_motion": 14.41848182,
        "meta_eccentricity": 0.0018985,
        "meta_inclination": 74.0369,
        "meta_ra_of_asc_node": 307.9543,
        "meta_arg_of_pericenter": 25.8447,
        "meta_mean_anomaly": 334.3653,
        "meta_ephemeris_type": 0,
        "meta_classification_type": "U",
        "meta_norad_cat_id": 53093,
        "meta_element_set_no": 999,
        "meta_rev_at_epoch": 17675,
        "meta_bstar": 0.0015097,
        "meta_mean_motion_dot": 4.925e-05,
        "meta_mean_motion_ddot": 0,
        "tle_line1": "1 53093U 93036BYP 25343.23285066  .00004925  00000+0  15097-2 0  9993",
        "tle_line2": "2 53093  74.0369 307.9543 0018985  25.8447 334.3653 14.41848182176757"
      },
      "geometry": {
        "type": "Point",
        "coordinates": [
          -50.22799447977207,
          13.72176297216814
        ]
      }
    }
  ]
}